NORAD_CAT_ID,OBJECT_NAME,OBJECT_TYPE,EPOCH,MEAN_MOTION,ECCENTRICITY,INCLINATION,RA_OF_ASC_NODE,ARG_OF_PERICENTER,MEAN_ANOMALY,BSTAR,MEAN_MOTION_DOT,MEAN_MOTION_DDOT,TLE_LINE0,TLE_LINE1,TLE_LINE2,SEMIMAJOR_AXIS,PERIOD,APOGEE,PERIGEE,DECAYED
52282.0,STARLINK-3783,PAYLOAD,2023-03-06 06:21:16,15.08886694,0.000106,53.2177,354.6424,63.8295,296.2806,0.0026005,0.00041395,0.0,0 STARLINK-3783,1 52282U 22041X   23065.26476925  .00041395  00000-0  26005-2 0  9992,2 52282  53.2177 354.6424 0001060  63.8295 296.2806 15.08886694 49746,6917.738,95.435,540.336,538.869,0.0
52282.0,STARLINK-3783,PAYLOAD,2023-03-06 19:04:21,15.08845945,0.0001098,53.2181,352.2627,104.5234,255.588,0.00097317,0.00015236,0.0,0 STARLINK-3783,1 52282U 22041X   23065.79469357  .00015236  00000-0  97317-3 0  9991,2 52282  53.2181 352.2627 0001098 104.5234 255.5880 15.08845945 49820,6917.862,95.437,540.487,538.968,0.0
52282.0,STARLINK-3783,PAYLOAD,2023-03-07 04:36:39,15.08914288,0.0001201,53.2177,350.4794,101.7342,258.3785,0.004429,0.00071055,0.0,0 STARLINK-3783,1 52282U 22041X   23066.19212238  .00071055  00000-0  44290-2 0  9992,2 52282  53.2177 350.4794 0001201 101.7342 258.3785 15.08914288 49883,6917.653,95.433,540.349,538.688,0.0
52282.0,STARLINK-3783,PAYLOAD,2023-03-07 14:00:01,15.08759371,0.0001295,53.2178,348.7225,72.7133,253.5771,0.005085,0.00081395,0.0,0 STARLINK-3783,1 52282U 22041X   23066.58334491  .00081395  00000-0  50850-2 0  9998,2 52282  53.2178 348.7225 0001295  72.7133 253.5771 15.08759371 49940,6918.127,95.443,540.888,539.096,0.0
52282.0,STARLINK-3783,PAYLOAD,2023-03-07 16:00:01,15.0876129,0.0001279,53.2176,348.3481,74.6583,344.5766,0.0063896,0.00102666,0.0,0 STARLINK-3783,1 52282U 22041X   23066.66668981  .00102666  00000-0  63896-2 0  9990,2 52282  53.2176 348.3481 0001279  74.6583 344.5766 15.08761290  1306,6918.121,95.443,540.871,539.101,0.0
52282.0,STARLINK-3783,PAYLOAD,2023-03-08 04:27:28,15.08842467,0.0001427,53.2193,346.0191,71.2514,288.8633,0.0017099,0.00027032,0.0,0 STARLINK-3783,1 52282U 22041X   23067.18574090  .00027032  00000-0  17099-2 0  9992,2 52282  53.2193 346.0191 0001427  71.2514 288.8633 15.08842467 50033,6917.873,95.437,540.725,538.751,0.0
52282.0,STARLINK-3783,PAYLOAD,2023-03-09 01:07:29,15.08874516,0.000236,53.2178,342.1524,72.7857,287.3394,0.0026413,0.0004204,0.0,0 STARLINK-3783,1 52282U 22041X   23068.04686419  .00042040  00000-0  26413-2 0  9993,2 52282  53.2178 342.1524 0002360  72.7857 287.3394 15.08874516 50168,6917.775,95.435,541.272,538.007,0.0
52282.0,STARLINK-3783,PAYLOAD,2023-03-09 18:36:44,15.08826623,0.0001848,53.218,338.8818,51.735,308.3809,0.0010773,0.00016893,0.0,0 STARLINK-3783,1 52282U 22041X   23068.77551636  .00016893  00000-0  10773-2 0  9994,2 52282  53.2180 338.8818 0001848  51.7350 308.3809 15.08826623 50277,6917.921,95.438,541.065,538.508,0.0
52282.0,STARLINK-3783,PAYLOAD,2023-03-09 21:47:30,15.08821819,0.000126,53.2176,338.2862,69.6474,290.4653,4.4289e-05,4.17e-06,0.0,0 STARLINK-3783,1 52282U 22041X   23068.90799701  .00000417  00000-0  44289-4 0  9992,2 52282  53.2176 338.2862 0001260  69.6474 290.4653 15.08821819 49074,6917.936,95.439,540.673,538.929,0.0
52282.0,STARLINK-3783,PAYLOAD,2023-03-10 10:30:36,15.08837884,0.0001343,53.2177,335.9087,67.0378,293.0755,0.00050023,7.682e-05,0.0,0 STARLINK-3783,1 52282U 22041X   23069.43791893  .00007682  00000-0  50023-3 0  9998,2 52282  53.2177 335.9087 0001343  67.0378 293.0755 15.08837884 50371,6917.887,95.438,540.681,538.823,0.0
52282.0,STARLINK-3783,PAYLOAD,2023-03-10 21:38:17,15.08863424,0.0001296,53.2165,333.829,75.3716,284.7419,0.0011855,0.00018642,0.0,0 STARLINK-3783,1 52282U 22041X   23069.90159485  .00018642  00000-0  11855-2 0  9992,2 52282  53.2165 333.8290 0001296  75.3716 284.7419 15.08863424 49221,6917.809,95.436,540.57,538.777,0.0
52282.0,STARLINK-3783,PAYLOAD,2023-03-11 02:24:26,15.08891149,0.000134,53.2167,332.9375,79.9738,280.1405,0.0021727,0.00034509,0.0,0 STARLINK-3783,1 52282U 22041X   23070.10030825  .00034509  00000-0  21727-2 0  9991,2 52282  53.2167 332.9375 0001340  79.9738 280.1405 15.08891149 50470,6917.724,95.434,540.516,538.662,0.0
52282.0,STARLINK-3783,PAYLOAD,2023-03-12 07:01:22,15.08853433,0.0001386,53.2155,327.5833,55.3676,304.7447,0.001213,0.00019077,0.0,0 STARLINK-3783,1 52282U 22041X   23071.29262124  .00019077  00000-0  12130-2 0  9992,2 52282  53.2155 327.5833 0001386  55.3676 304.7447 15.08853433 50658,6917.839,95.437,540.663,538.746,0.0
52282.0,STARLINK-3783,PAYLOAD,2023-03-13 02:06:00,15.08845654,0.0001088,53.2159,324.0134,83.4463,276.6653,0.00129,0.00020305,0.0,0 STARLINK-3783,1 52282U 22041X   23072.08750384  .00020305  00000-0  12900-2 0  9991,2 52282  53.2159 324.0134 0001088  83.4463 276.6653 15.08845654 50778,6917.863,95.437,540.481,538.975,0.0
52282.0,STARLINK-3783,PAYLOAD,2023-03-13 21:10:36,15.08893751,0.0001384,53.2167,320.4435,68.805,291.309,0.0015272,0.00024137,0.0,0 STARLINK-3783,1 52282U 22041X   23072.88236604  .00024137  00000-0  15272-2 0  9995,2 52282  53.2167 320.4435 0001384  68.8050 291.3090 15.08893751 49676,6917.716,95.434,540.539,538.624,0.0
52282.0,STARLINK-3783,PAYLOAD,2023-03-14 01:56:48,15.08839484,0.0001271,53.2171,319.5522,87.7969,272.3168,0.0014135,0.00022279,0.0,0 STARLINK-3783,1 52282U 22041X   23073.08111622  .00022279  00000-0  14135-2 0  9992,2 52282  53.2171 319.5522 0001271  87.7969 272.3168 15.08839484 50929,6917.882,95.438,540.626,538.868,0.0
52282.0,STARLINK-3783,PAYLOAD,2023-03-15 01:47:34,15.08869862,0.0001436,53.2181,315.0894,89.3957,270.72,0.0012404,0.00019524,0.0,0 STARLINK-3783,1 52282U 22041X   23074.07470957  .00019524  00000-0  12404-2 0  9997,2 52282  53.2181 315.0894 0001436  89.3957 270.7200 15.08869862 51070,6917.789,95.436,540.648,538.661,0.0
52282.0,STARLINK-3783,PAYLOAD,2023-03-15 22:27:35,15.08856116,0.0001467,53.2167,311.226,91.2653,268.8507,0.0005777,8.922e-05,0.0,0 STARLINK-3783,1 52282U 22041X   23074.93582878  .00008922  00000-0  57770-3 0  9994,2 52282  53.2167 311.2260 0001467  91.2653 268.8507 15.08856116 49981,6917.831,95.437,540.711,538.681,0.0
52282.0,STARLINK-3783,PAYLOAD,2023-03-16 01:38:21,15.08858987,0.0001487,53.2171,310.6307,92.82,267.2962,0.0007294,0.00011345,0.0,0 STARLINK-3783,1 52282U 22041X   23075.06830762  .00011345  00000-0  72940-3 0  9996,2 52282  53.2171 310.6307 0001487  92.8200 267.2962 15.08858987 51224,6917.822,95.436,540.716,538.659,0.0
52282.0,STARLINK-3783,PAYLOAD,2023-03-16 20:43:00,15.08822118,0.0001505,53.2163,307.0631,105.5285,254.5874,0.00074136,0.00011525,0.0,0 STARLINK-3783,1 52282U 22041X   23075.86319929  .00011525  00000-0  74136-3 0  9990,2 52282  53.2163 307.0631 0001505 105.5285 254.5874 15.08822118 51342,6917.935,95.439,540.841,538.759,0.0
52282.0,STARLINK-3783,PAYLOAD,2023-03-17 07:50:42,15.08833455,0.0001381,53.216,304.9823,84.2715,275.8435,0.00058257,8.994e-05,0.0,0 STARLINK-3783,1 52282U 22041X   23076.32688358  .00008994  00000-0  58257-3 0  9999,2 52282  53.2160 304.9823 0001381  84.2715 275.8435 15.08833455 50198,6917.9,95.438,540.721,538.81,0.0
52282.0,STARLINK-3783,PAYLOAD,2023-03-17 22:09:10,15.0885956,0.0001416,53.2153,302.3061,78.2765,281.8386,0.0010485,0.00016447,0.0,0 STARLINK-3783,1 52282U 22041X   23076.92303913  .00016447  00000-0  10485-2 0  9998,2 52282  53.2153 302.3061 0001416  78.2765 281.8386 15.08859560 50280,6917.821,95.436,540.665,538.706,0.0
52282.0,STARLINK-3783,PAYLOAD,2023-03-17 23:44:33,15.08863186,0.0001449,53.2156,302.0087,79.0121,281.1034,0.0010769,0.00016903,0.0,0 STARLINK-3783,1 52282U 22041X   23076.98927791  .00016903  00000-0  10769-2 0  9992,2 52282  53.2156 302.0087 0001449  79.0121 281.1034 15.08863186 51518,6917.81,95.436,540.677,538.672,0.0
52282.0,STARLINK-3783,PAYLOAD,2023-03-18 07:41:29,15.08855568,0.0001344,53.2159,300.5206,80.8156,279.2988,0.00065703,0.00010189,0.0,0 STARLINK-3783,1 52282U 22041X   23077.32047652  .00010189  00000-0  65703-3 0  9999,2 52282  53.2159 300.5206 0001344  80.8156 279.2988 15.08855568 51565,6917.833,95.437,540.628,538.768,0.0
52282.0,STARLINK-3783,PAYLOAD,2023-03-18 20:24:33,15.08852995,0.0001341,53.2152,298.1431,79.7252,280.3891,0.00012667,1.729e-05,0.0,0 STARLINK-3783,1 52282U 22041X   23077.85039210  .00001729  00000-0  12667-3 0  9999,2 52282  53.2152 298.1431 0001341  79.7252 280.3891 15.08852995 51647,6917.841,95.437,540.633,538.778,0.0
52282.0,STARLINK-3783,PAYLOAD,2023-03-18 21:59:56,15.08853428,0.0001355,53.2154,297.8457,79.6147,280.4998,0.00019113,2.756e-05,0.0,0 STARLINK-3783,1 52282U 22041X   23077.91663186  .00002756  00000-0  19113-3 0  9995,2 52282  53.2154 297.8457 0001355  79.6147 280.4998 15.08853428 50437,6917.839,95.437,540.642,538.767,0.0
52282.0,STARLINK-3783,PAYLOAD,2023-03-19 07:32:15,15.08850026,0.0001259,53.2148,296.0612,85.667,274.4466,0.00010958,1.457e-05,0.0,0 STARLINK-3783,1 52282U 22041X   23078.31407053  .00001457  00000-0  10958-3 0  9994,2 52282  53.2148 296.0612 0001259  85.6670 274.4466 15.08850026 50495,6917.85,95.437,540.586,538.844,0.0
52282.0,STARLINK-3783,PAYLOAD,2023-03-19 20:15:21,15.08839841,0.0001385,53.216,293.6816,81.7226,278.3923,-0.00012484,-2.274e-05,0.0,0 STARLINK-3783,1 52282U 22041X   23078.84399406 -.00002274  00000-0 -12484-3 0  9990,2 52282  53.2160 293.6816 0001385  81.7226 278.3923 15.08839841 51799,6917.881,95.438,540.704,538.788,0.0
52282.0,STARLINK-3783,PAYLOAD,2023-03-19 21:50:44,15.08843122,0.0001401,53.2163,293.384,82.3902,277.725,-7.2762e-05,-1.446e-05,0.0,0 STARLINK-3783,1 52282U 22041X   23078.91023394 -.00001446  00000-0 -72762-4 0  9994,2 52282  53.2163 293.3840 0001401  82.3902 277.7250 15.08843122 50582,6917.871,95.437,540.705,538.767,0.0
52282.0,STARLINK-3783,PAYLOAD,2023-03-20 07:23:02,15.08845611,0.0001289,53.2149,291.6001,91.5452,268.5688,-3.2989e-05,-8.13e-06,0.0,0 STARLINK-3783,1 52282U 22041X   23079.30767141 -.00000813  00000-0 -32989-4 0  9997,2 52282  53.2149 291.6001 0001289  91.5452 268.5688 15.08845611 50647,6917.863,95.437,540.62,538.837,0.0
